[{"OBJECT_NAME":"CUBESX-HSE 3 (RS42S)","OBJECT_ID":"2023-091N","EPOCH":"2026-03-09T22:57:25.321248","MEAN_MOTION":15.286147,"ECCENTRICITY":0.00127191,"INCLINATION":97.5203,"RA_OF_ASC_NODE":133.4295,"ARG_OF_PERICENTER":86.5376,"MEAN_ANOMALY":273.7318,"EPHEMERIS_TYPE":0,"CLASSIFICATION_TYPE":"U","NORAD_CAT_ID":57178,"ELEMENT_SET_NO":999,"REV_AT_EPOCH":14925,"BSTAR":0.00059055694,"MEAN_MOTION_DOT":0.00016417,"MEAN_MOTION_DDOT":0},{"OBJECT_NAME":"STARLINK-30485","OBJECT_ID":"2023-147H","EPOCH":"2026-03-09T22:00:01.999584","MEAN_MOTION":15.26757008,"ECCENTRICITY":0.00017388,"INCLINATION":42.9999,"RA_OF_ASC_NODE":323.8255,"ARG_OF_PERICENTER":290.0372,"MEAN_ANOMALY":78.2448,"EPHEMERIS_TYPE":0,"CLASSIFICATION_TYPE":"U","NORAD_CAT_ID":57920,"ELEMENT_SET_NO":999,"REV_AT_EPOCH":577,"BSTAR":0.0017900753,"MEAN_MOTION_DOT":0.00048096,"MEAN_MOTION_DDOT":0}]
